NORAD_CAT_ID,OBJECT_NAME,OBJECT_TYPE,EPOCH,MEAN_MOTION,ECCENTRICITY,INCLINATION,RA_OF_ASC_NODE,ARG_OF_PERICENTER,MEAN_ANOMALY,BSTAR,MEAN_MOTION_DOT,MEAN_MOTION_DDOT,TLE_LINE0,TLE_LINE1,TLE_LINE2,SEMIMAJOR_AXIS,PERIOD,APOGEE,PERIGEE,DECAYED
49434.0,STARLINK-3134,PAYLOAD,2022-09-24 20:34:00,15.08849323,0.0001833,53.2162,133.7244,59.0833,301.0339,0.00022663,3.321e-05,0.0,0 STARLINK-3134,1 49434U 21104AC  22267.85695282  .00003321  00000-0  22663-3 0  9997,2 49434  53.2162 133.7244 0001833  59.0833 301.0339 15.08849323 49221,6917.852,95.437,540.985,538.4490000000002,0.0
49434.0,STARLINK-3134,PAYLOAD,2022-09-25 02:55:33,15.088354,0.0001814,53.2161,132.5353,57.6884,302.4283,-9.4966e-05,-1.799e-05,0.0,0 STARLINK-3134,1 49434U 21104AC  22268.12191622 -.00001799  00000-0 -94966-4 0  9992,2 49434  53.2161 132.5353 0001814  57.6884 302.4283 15.08835400 49265,6917.894,95.438,541.014,538.505,0.0
49434.0,STARLINK-3134,PAYLOAD,2022-09-25 10:52:29,15.08834027,0.0001884,53.2161,131.0483,54.8906,305.2262,5.5767e-06,-1.99e-06,0.0,0 STARLINK-3134,1 49434U 21104AC  22268.45311895 -.00000199  00000-0  55767-5 0  9993,2 49434  53.2161 131.0483 0001884  54.8906 305.2262 15.08834027 49312,6917.899,95.438,541.067,538.46,0.0
49434.0,STARLINK-3134,PAYLOAD,2022-09-25 22:00:11,15.08840026,0.0001811999999999,53.2161,128.9666,57.0433,303.0733,3.139e-05,2.11e-06,0.0,0 STARLINK-3134,1 49434U 21104AC  22268.91679600  .00000211  00000-0  31390-4 0  9994,2 49434  53.2161 128.9666 0001812  57.0433 303.0733 15.08840026 49383,6917.88,95.438,540.999,538.492,0.0
49434.0,STARLINK-3134,PAYLOAD,2022-09-26 09:07:53,15.08841134,0.0001758,53.216,126.8848,58.9792,301.1373,3.5000000000000016e-06,-2.32e-06,0.0,0 STARLINK-3134,1 49434U 21104AC  22269.38047490 -.00000232  00000-0  35000-5 0  9999,2 49434  53.2160 126.8848 0001758  58.9792 301.1373 15.08841134 49456,6917.877,95.437,540.9580000000002,538.526,0.0
49434.0,STARLINK-3134,PAYLOAD,2022-09-26 12:18:39,15.08834665,0.0001751,53.2159,126.2902,58.4964,301.6199,-0.00010356,-1.936e-05,0.0,0 STARLINK-3134,1 49434U 21104AC  22269.51295827 -.00001936  00000-0 -10356-3 0  9991,2 49434  53.2159 126.2902 0001751  58.4964 301.6199 15.08834665 49472,6917.897,95.438,540.9730000000002,538.55,0.0
49434.0,STARLINK-3134,PAYLOAD,2022-09-26 18:40:12,15.08833117,0.0001712,53.217,125.1004,58.9685,301.1475,4.6119e-05,4.46e-06,0.0,0 STARLINK-3134,1 49434U 21104AC  22269.77792369  .00000446  00000-0  46119-4 0  9992,2 49434  53.2170 125.1004 0001712  58.9685 301.1475 15.08833117 49516,6917.901,95.438,540.951,538.582,0.0
49434.0,STARLINK-3134,PAYLOAD,2022-09-26 20:15:35,15.08833808,0.0001710999999999,53.2169,124.803,59.1562,300.9598,5.4032e-05,5.72e-06,0.0,0 STARLINK-3134,1 49434U 21104AC  22269.84416361  .00000572  00000-0  54032-4 0  9998,2 49434  53.2169 124.8030 0001711  59.1562 300.9598 15.08833808 49526,6917.899,95.438,540.948,538.581,0.0
49434.0,STARLINK-3134,PAYLOAD,2022-09-27 02:37:08,15.08837196,0.0001728,53.2159,123.6137,58.0771,302.0389,7.532800000000001e-05,9.11e-06,0.0,0 STARLINK-3134,1 49434U 21104AC  22270.10912050  .00000911  00000-0  75328-4 0  9993,2 49434  53.2159 123.6137 0001728  58.0771 302.0389 15.08837196 49567,6917.889,95.438,540.9490000000002,538.559,0.0
49434.0,STARLINK-3134,PAYLOAD,2022-09-27 20:06:22,15.08850239,0.0001679,53.2155,120.3424,57.9285,302.187,0.00034849,5.264e-05,0.0,0 STARLINK-3134,1 49434U 21104AC  22270.83775643  .00005264  00000-0  34849-3 0  9996,2 49434  53.2155 120.3424 0001679  57.9285 302.1870 15.08850239 49670,6917.849,95.437,540.876,538.553,0.0
49434.0,STARLINK-3134,PAYLOAD,2022-09-28 13:35:36,15.08846862,0.0001689,53.2152,117.0713,57.5722,302.5433,0.00019827,2.869e-05,0.0,0 STARLINK-3134,1 49434U 21104AC  22271.56639504  .00002869  00000-0  19827-3 0  9999,2 49434  53.2152 117.0713 0001689  57.5722 302.5433 15.08846862 49782,6917.859,95.437,540.893,538.556,0.0
49434.0,STARLINK-3134,PAYLOAD,2022-09-28 19:57:08,15.08850211,0.0001656,53.2153,115.8816,57.245,302.8702,0.00024214,3.569e-05,0.0,0 STARLINK-3134,1 49434U 21104AC  22271.83135321  .00003569  00000-0  24214-3 0  9991,2 49434  53.2153 115.8816 0001656  57.2450 302.8702 15.08850211 49822,6917.849,95.437,540.86,538.569,0.0
49434.0,STARLINK-3134,PAYLOAD,2022-09-29 03:54:04,15.08837151,0.0001636,53.2155,114.395,56.5759,303.5389,-4.4561e-05,-9.97e-06,0.0,0 STARLINK-3134,1 49434U 21104AC  22272.16255756 -.00000997  00000-0 -44561-4 0  9995,2 49434  53.2155 114.3950 0001636  56.5759 303.5389 15.08837151 49871,6917.889,95.438,540.886,538.622,0.0
49434.0,STARLINK-3134,PAYLOAD,2022-09-29 13:26:24,15.08826442,0.0001594,53.2159,112.6104,62.1276,297.9877,-0.00015337,-2.727e-05,0.0,0 STARLINK-3134,1 49434U 21104AC  22272.56000515 -.00002727  00000-0 -15337-3 0  9991,2 49434  53.2159 112.6104 0001594  62.1276 297.9877 15.08826442 49933,6917.922,95.438,540.89,538.684,0.0
49434.0,STARLINK-3134,PAYLOAD,2022-09-29 19:47:57,15.08828798,0.0001709,53.2159,111.4219,58.0221,302.0937,-0.00021066,-3.638e-05,0.0,0 STARLINK-3134,1 49434U 21104AC  22272.82496632 -.00003638  00000-0 -21066-3 0  9997,2 49434  53.2159 111.4219 0001709  58.0221 302.0937 15.08828798 49974,6917.915,95.438,540.962,538.597,0.0
49434.0,STARLINK-3134,PAYLOAD,2022-09-30 06:55:39,15.08831714,0.0001656,53.216,109.3402,56.1932,303.9218,-6.7634e-05,-1.364e-05,0.0,0 STARLINK-3134,1 49434U 21104AC  22273.28864863 -.00001364  00000-0 -67634-4 0  9999,2 49434  53.2160 109.3402 0001656  56.1932 303.9218 15.08831714 50049,6917.906,95.438,540.9159999999998,538.625,0.0
49434.0,STARLINK-3134,PAYLOAD,2022-09-30 16:27:58,15.0883342,0.0001641999999999,53.2162,107.5557,55.5718,304.5429,0.00010941,1.453e-05,0.0,0 STARLINK-3134,1 49434U 21104AC  22273.68609120  .00001453  00000-0  10941-3 0  9991,2 49434  53.2162 107.5557 0001642  55.5718 304.5429 15.08833420 50106,6917.901,95.438,540.901,538.63,0.0
49434.0,STARLINK-3134,PAYLOAD,2022-09-30 19:38:44,15.08836404,0.0001684,53.2162,106.961,55.4472,304.6679,0.00016604,2.355e-05,0.0,0 STARLINK-3134,1 49434U 21104AC  22273.81857135  .00002355  00000-0  16604-3 0  9991,2 49434  53.2162 106.9610 0001684  55.4472 304.6679 15.08836404 50126,6917.891,95.438,540.9209999999998,538.591,0.0
49434.0,STARLINK-3134,PAYLOAD,2022-10-01 11:32:36,15.0884706,0.0001729,53.2162,103.9873,54.7088,305.4066,0.00052296,8.046e-05,0.0,0 STARLINK-3134,1 49434U 21104AC  22274.48097238  .00008046  00000-0  52296-3 0  9995,2 49434  53.2162 103.9873 0001729  54.7088 305.4066 15.08847060 50229,6917.859,95.437,540.92,538.528,0.0
49434.0,STARLINK-3134,PAYLOAD,2022-10-01 19:29:31,15.08859169,0.000177,53.2164,102.5003,54.1165,305.9991,0.00079291,0.0001236,0.0,0 STARLINK-3134,1 49434U 21104AC  22274.81217012  .00012360  00000-0  79291-3 0  9994,2 49434  53.2164 102.5003 0001770  54.1165 305.9991 15.08859169 50277,6917.821999999999,95.436,540.911,538.462,0.0
49434.0,STARLINK-3134,PAYLOAD,2022-10-02 12:58:45,15.08852785,0.0001748,53.2165,99.2294,54.5373,305.5782,0.00021054,3.065e-05,0.0,0 STARLINK-3134,1 49434U 21104AC  22275.54080531  .00003065  00000-0  21054-3 0  9995,2 49434  53.2165  99.2294 0001748  54.5373 305.5782 15.08852785 50385,6917.840999999999,95.437,540.9159999999998,538.497,0.0
49434.0,STARLINK-3134,PAYLOAD,2022-10-02 19:20:17,15.08857117,0.0001730999999999,53.2166,98.0401,53.3205,306.7946,0.00031191,4.682e-05,0.0,0 STARLINK-3134,1 49434U 21104AC  22275.80576273  .00004682  00000-0  31191-3 0  9996,2 49434  53.2166  98.0401 0001731  53.3205 306.7946 15.08857117 50420,6917.828,95.436,540.891,538.496,0.0
49434.0,STARLINK-3134,PAYLOAD,2022-10-03 11:14:08,15.08856212,0.0001739,53.2165,95.0666,54.2985,305.8169,0.00021865,3.195e-05,0.0,0 STARLINK-3134,1 49434U 21104AC  22276.46815766  .00003195  00000-0  21865-3 0  9997,2 49434  53.2165  95.0666 0001739  54.2985 305.8169 15.08856212 50525,6917.831,95.437,540.899,538.493,0.0
49434.0,STARLINK-3134,PAYLOAD,2022-10-03 14:24:55,15.08850704,0.0001736,53.2165,94.4717,54.04,306.0753,7.412e-05,8.92e-06,0.0,0 STARLINK-3134,1 49434U 21104AC  22276.60063809  .00000892  00000-0  74120-4 0  9990,2 49434  53.2165  94.4717 0001736  54.0400 306.0753 15.08850704 50546,6917.848000000001,95.437,540.914,538.512,0.0
49434.0,STARLINK-3134,PAYLOAD,2022-10-04 11:04:55,15.088476000000002,0.0001723,53.2166,90.6055,53.5578,306.5573,0.00011016,1.466e-05,0.0,0 STARLINK-3134,1 49434U 21104AC  22277.46175668  .00001466  00000-0  11016-3 0  9994,2 49434  53.2166  90.6055 0001723  53.5578 306.5573 15.08847600 50676,6917.857,95.437,540.914,538.53,0.0
49434.0,STARLINK-3134,PAYLOAD,2022-10-04 14:15:41,15.08850865,0.0001736,53.2165,90.0109,54.0987,306.0166,0.00014794,2.068e-05,0.0,0 STARLINK-3134,1 49434U 21104AC  22277.59423437  .00002068  00000-0  14794-3 0  9993,2 49434  53.2165  90.0109 0001736  54.0987 306.0166 15.08850865 50695,6917.847,95.437,540.913,538.511,0.0
49434.0,STARLINK-3134,PAYLOAD,2022-10-05 06:09:33,15.08844466,0.0001796,53.2167,87.0372,53.9702,306.1456,1.2123e-05,-9.5e-07,0.0,0 STARLINK-3134,1 49434U 21104AC  22278.25663530 -.00000095  00000-0  12123-4 0  9991,2 49434  53.2167  87.0372 0001796  53.9702 306.1456 15.08844466 50798,6917.8669999999975,95.437,540.974,538.489,0.0
49434.0,STARLINK-3134,PAYLOAD,2022-10-05 17:17:15,15.08840157,0.0001823,53.2164,84.9555,55.5654,304.551,3.9643e-05,3.43e-06,0.0,0 STARLINK-3134,1 49434U 21104AC  22278.72031741  .00000343  00000-0  39643-4 0  9997,2 49434  53.2164  84.9555 0001823  55.5654 304.5510 15.08840157 50863,6917.88,95.438,541.006,538.484,0.0
49434.0,STARLINK-3134,PAYLOAD,2022-10-05 20:28:01,15.088418099999998,0.0001821,53.2175,84.361,52.7447,307.3711,6.6257e-05,7.67e-06,0.0,0 STARLINK-3134,1 49434U 21104AC  22278.85279873  .00000767  00000-0  66257-4 0  9992,2 49434  53.2175  84.3610 0001821  52.7447 307.3711 15.08841810 50881,6917.875,95.437,541.0,538.48,0.0
